GPS BIIR-2  (PRN 13)    
1 24876U 97035A   23041.18495536  .00000028  00000+0  00000+0 0  9990
2 24876  55.5467 146.3953 0065837  52.5033 308.1059  2.00564027187423
GPS BIIR-4  (PRN 20)    
1 26360U 00025A   23041.85520313 -.00000021  00000+0  00000+0 0  9993
2 26360  54.2573  69.0360 0045304 195.4502  18.4447  2.00555076166743
GPS BIIR-8  (PRN 16)    
1 27663U 03005A   23040.94827553  .00000042  00000+0  00000+0 0  9998
2 27663  55.3602 263.6216 0132069  42.9352 210.2834  2.00550662146770
GPS BIIR-9  (PRN 21)    
1 27704U 03010A   23041.44553120 -.00000065  00000+0  00000+0 0  9998
2 27704  55.0915  13.6813 0249762 312.7493 158.9626  2.00566152145574
GPS BIIR-11 (PRN 19)    
1 28190U 04009A   23041.11362171 -.00000059  00000+0  00000+0 0  9998
2 28190  55.8464 324.6493 0089042 129.1106  41.5874  2.00571995138412
GPS BIIR-13 (PRN 02)    
1 28474U 04045A   23041.12757096 -.00000065  00000+0  00000+0 0  9995
2 28474  55.4165  13.9254 0202392 283.6150 108.0104  2.00562411133901
GPS BIIRM-1 (PRN 17)    
1 28874U 05038A   23040.09433819 -.00000056  00000+0  00000+0 0  9991
2 28874  55.9044 322.1330 0139335 278.3114 264.2707  2.00559499127283
GPS BIIRM-2 (PRN 31)    
1 29486U 06042A   23040.87392564  .00000072  00000+0  00000+0 0  9991
2 29486  54.6965 199.8411 0106821  27.5922 274.3733  2.00565568119854
GPS BIIRM-3 (PRN 12)    
1 29601U 06052A   23040.90594958  .00000044  00000+0  00000+0 0  9995
2 29601  55.3746 262.5715 0086837  76.1249 284.8980  2.00564863118877
GPS BIIRM-4 (PRN 15)    
1 32260U 07047A   23040.70884840  .00000013  00000+0  00000+0 0  9991
2 32260  53.3860 130.7072 0145357  67.1906 294.3760  2.00562984112296
GPS BIIRM-5 (PRN 29)    
1 32384U 07062A   23041.10774505 -.00000056  00000+0  00000+0 0  9994
2 32384  56.0297 322.8857 0020272 142.3827 274.5992  2.00574525110983
GPS BIIRM-6 (PRN 07)    
1 32711U 08012A   23040.62278578  .00000069  00000+0  00000+0 0  9992
2 32711  54.4607 198.7324 0169100 232.9275 125.4831  2.00572551109217
GPS BIIRM-8 (PRN 05)    
1 35752U 09043A   23041.11410038 -.00000014  00000+0  00000+0 0  9990
2 35752  55.2608  75.9736 0055584  63.8074 303.6156  2.00571116 98837
GPS BIIF-1  (PRN 25)    
1 36585U 10022A   23041.18539594  .00000051  00000+0  00000+0 0  9990
2 36585  54.6658 257.9150 0109333  58.3886 121.9532  2.00551129 93065
GPS BIIF-2  (PRN 01)    
1 37753U 11036A   23040.61681421 -.00000061  00000+0  00000+0 0  9990
2 37753  56.6957  19.4833 0121495  52.9632 156.5164  2.00566853 84737
GPS BIIF-3  (PRN 24)    
1 38833U 12053A   23041.30757265  .00000070  00000+0  00000+0 0  9996
2 38833  53.5187 193.6144 0135506  50.0440 311.1034  2.00564368 75804
GPS BIIF-4  (PRN 27)    
1 39166U 13023A   23040.16931547 -.00000052  00000+0  00000+0 0  9995
2 39166  55.5237 318.4097 0111472  39.0679 321.7735  2.00565115 71333
GPS BIIF-5  (PRN 30)    
1 39533U 14008A   23041.16866688  .00000072  00000+0  00000+0 0  9992
2 39533  53.6087 199.1528 0062280 209.7856 149.8280  2.00566796 65705
GPS BIIF-6  (PRN 06)    
1 39741U 14026A   23040.94674229 -.00000060  00000+0  00000+0 0  9994
2 39741  56.6529  18.9948 0030805 308.7343  50.9934  2.00571945 64005
GPS BIIF-7  (PRN 09)    
1 40105U 14045A   23040.54067716  .00000019  00000+0  00000+0 0  9997
2 40105  54.7496 137.3351 0023007 114.8605 245.4059  2.00563194 61531
GPS BIIF-8  (PRN 03)    
1 40294U 14068A   23040.41196895 -.00000011  00000+0  00000+0 0  9991
2 40294  56.0031  78.5892 0042586  56.5810 303.9002  2.00557874 60646
GPS BIIF-9  (PRN 26)    
1 40534U 15013A   23040.54651095  .00000049  00000+0  00000+0 0  9991
2 40534  53.5656 254.8653 0077418  24.0187 336.3892  2.00567357 57281
GPS BIIF-10 (PRN 08)    
1 40730U 15033A   23040.20732935 -.00000051  00000+0  00000+0 0  9991
2 40730  55.0164 317.1228 0082372  10.5328 349.6833  2.00565894 55445
GPS BIIF-11 (PRN 10)    
1 41019U 15062A   23041.25841952 -.00000011  00000+0  00000+0 0  9996
2 41019  55.9900  78.4027 0085920 221.0029 138.4175  2.00562378 53306
GPS BIIF-12 (PRN 32)    
1 41328U 16007A   23041.34533734  .00000020  00000+0  00000+0 0  9994
2 41328  54.9606 138.0316 0067737 231.8313 127.5851  2.00559535 51350
GPS BIII-1  (PRN 04)    
1 43873U 18109A   23040.63335372  .00000022  00000+0  00000+0 0  9997
2 43873  55.1384 140.5307 0023327 190.8966 264.6972  2.00558953 30533
GPS BIII-2  (PRN 18)    
1 44506U 19056A   23041.38144951 -.00000060  00000+0  00000+0 0  9990
2 44506  55.7717  19.5996 0029854 186.5768 350.0328  2.00561665 25538
GPS BIII-3  (PRN 23)    
1 45854U 20041A   23041.21040061 -.00000013  00000+0  00000+0 0  9990
2 45854  55.7100  76.8768 0030112 186.4448 168.3865  2.00566825 19506
GPS BIII-4  (PRN 14)    
1 46826U 20078A   23040.58664105  .00000044  00000+0  00000+0 0  9993
2 46826  54.4218 260.4653 0026633 188.3255  52.2687  2.00564409 16962
GPS BIII-5  (PRN 11)    
1 48859U 21054A   23041.12498929 -.00000060  00000+0  00000+0 0  9995
2 48859  55.2835  21.4938 0008974 219.8643 233.2137  2.00560498 12224
GPS BIII-6  (PRN 28)    
1 55268U 23009A   23041.43832154  .00000076  00000+0  00000+0 0  9991
2 55268  55.1003 196.4895 0008186  98.2918 261.7688  2.00570270   724
